O3B MPOWER F1           
1 54755U 22174A   24054.53197042 -.00000028  00000+0  00000+0 0  9997
2 54755   0.0632   7.9600 0006406 335.4073 246.3861  5.00118521 23101
